#dP2023  7 30  0  0  0.00000000      96 __u+U IGS14 FIT  IAC
## 2273      0.00000000   900.00000000 60155 0.0000000000000
+  119   C06C07C08C09C10C11C12C13C14C16C19C20C21C22C23C24C25
+        C26C27C28C29C30C32C33C34C35C36C37C38C39C40C41C42C43
+        C44C45C46E02E03E04E05E07E08E09E10E11E12E13E14E15E18
+        E19E21E24E25E26E27E30E31E33E34E36G01G02G03G04G05G06
+        G07G08G09G10G11G12G13G14G15G16G17G18G19G20G21G22G23
+        G24G25G26G27G28G29G30G31G32J02J03J04R01R02R03R04R05
+        R07R08R09R11R12R13R14R15R16R17R18R19R20R21R22R24R25
++         7  7  7  7  8  7  7  7  7  7  6  6  6  6  6  6  6
++         6  6  6  6  6  6  6  6  6  6  6  6  6  7  6  6  6
++         6  7  6  4  5  4  4  4  5  4  4  4  4  4  4  5  4
++         4  4  4  4  5  4  4  5  4  5  4  4  3  3  3  4  3
++         4  4  3  3  4  3  4  3  4  4  3  4  3  4  3  4  4
++         4  3  4  4  3  4  4  3  4  9  9 10  7  6  6  7  7
++         7  7  7  7  7  8  7  7  7  7  7  7  8  7  7  7  8
%c M  cc GPS ccc cccc cccc cccc cccc ccccc ccccc ccccc ccccc
%c cc cc ccc ccc cccc cccc cccc cccc ccccc ccccc ccccc ccccc
%f  1.2500000  1.025000000  0.00000000000  0.000000000000000
%f  0.0000000  0.000000000  0.00000000000  0.000000000000000
%i    0    0    0    0      0      0      0      0         0
%i    0    0    0    0      0      0      0      0         0
/* INFORMATION & ANALYSIS CENTER (IAC)            FINAL DATA
/* S/V CLOCKS ARE ALIGNED TO GNSS TIME                      
/* G:C1WC2W R:C1PC2P E:C1XC5X C:C2IC6I J:C1CC2S             
/* PCV:IGS20_2247 OL/AL:FES2004  NONE     YN ORB:CoN CLK:CoN
*  2023 07 30  4 45  0.00000000
PC06 -19514.832833  28857.765745 -23924.340539    736.401079
PC07  -6517.325457  40071.961942 -10866.453684    148.928288
PC08   -955.282642  22666.398927  35547.311612    409.795576
PC09 -10769.998209  27804.647475 -29598.537326    355.172009
PC10  -1336.399661  41467.700498  -5232.202575   -129.720118
PC11  18163.674318 -20133.202169  -6595.313072    752.564278
PC12  23612.699720  -9598.126778  11414.651517    828.690203
PC13   5651.213487  26237.337726  32730.508796    324.940766
PC14   6902.538409 -21882.376443 -15914.289656    141.195112
PC16 -21206.799796  28399.326767 -22803.090374    -14.322679
PC19   -521.842247  26704.905236   8056.335604   -949.343134
PC20 -11365.967647  15053.354671  20560.666680    399.401113
PC21  16235.991872   6700.922553 -21669.019245   -941.706869
PC22  11203.904489  23579.851626  -9826.273426   -373.903180
PC23 -16802.361504 -16979.610128  14437.004525   -923.973995
PC24  21053.195046  -5881.956324  17356.257549    228.242386
PC25   1611.069158 -16482.872602  22452.979677    178.597117
PC26  26984.758166   6523.036045   2997.516479   -155.929024
PC27 -21614.134116   2210.161592 -17538.458387    176.969485
PC28  -9685.685978 -12687.079690 -22889.272355    132.130538
PC29  -9143.681512  22018.507098  14490.769050    154.033577
PC30 -21891.924856  17057.825274  -3011.864700     -2.818592
PC32 -16312.681331  -6723.750840  21634.072829   -535.367503
PC33    409.998993 -26706.764024  -8119.465119   -924.752921
PC34  21393.247976 -17830.208988   1638.196552    225.891880
PC35   9865.157862  12665.027615  22813.134895    578.306226
PC36  -2843.939505  16192.791060 -22519.393450   -302.809796
PC37 -26705.019844  -7784.115123  -2064.376707   -799.578627
PC38 -10119.430855  20567.574985  35406.251794     94.854560
PC39 -25296.637797  29052.837401 -17368.061055     -4.062985
PC40 -11971.011812  37472.466729 -14776.025743    -31.132690
PC41 -10999.837019 -23958.266160   9218.083010   -895.183611
PC42  12019.793192 -13722.512057 -21087.604639   -594.810439
PC43   9884.904599 -22143.434581 -13808.394146     32.982736
PC44  21493.267448  -2771.701018  17551.993113    184.267452
PC45  17294.829522  16792.964881 -14069.186350     -7.913023
PC46 -19969.310698   6753.279783 -18261.988660    -72.681119
PE02  13457.664068  25336.567426  -7310.399327     52.681204
PE03   3373.364375  23970.042956 -17028.575408    -40.943308
PE04 -15636.331419  -6657.625301  24242.701576   -177.938198
PE05 -11012.153340  27472.221552    232.118490      4.270656
PE07  18923.222312 -14573.405506 -17486.680312    -63.634412
PE08  15337.132827   7004.313529 -24327.659361   -122.309658
PE09 -18824.988950  14454.977868  17679.812633   -102.351673
PE10 -29245.308743   1735.054196  -4203.488971   -552.270622
PE11 -27717.630404   8258.223967   6301.753919   2607.795286
PE12 -26182.830210  -4622.834377 -13032.236206   -637.960950
PE13  27970.374835  -7884.539555  -5633.864069    -19.366880
PE14 -13585.491298  20365.972130  -3748.736228    296.646907
PE15  25974.297648   4770.008626  13368.625650    -41.065923
PE18   8683.970240 -29922.048881  -7128.184903    354.320810
PE19  -1250.224682 -25350.342898  15238.934100  -1964.095392
PE21   2354.687211 -20546.931886  21183.085616   -543.663155
PE24 -18069.362198   2973.954834 -23259.600174   -237.432994
PE25  -2660.832076  20330.108972 -21338.108431   -609.069117
PE26  12808.907638 -16004.338603 -21360.045819    177.793621
PE27  17680.236446  -3634.387445  23469.145463   -111.770391
PE30  22332.545185  15676.101625  11483.769649   -376.592859
PE31 -22413.118520 -15236.979142 -11890.404475     -1.508528
PE33  -8074.536058 -14656.477754 -24420.176174     -2.082124
PE34   8860.097856  14431.852563  24266.538090    -58.787055
PE36 -13578.664150  15743.852563  21064.274246    -93.433820
PG01  -6889.270643 -13809.611430 -22006.314930    170.672434
PG02    366.263302 -15088.248540 -21338.502298   -570.949355
PG03 -11978.732676 -22975.986413  -6250.203782   -210.789193
PG04  -2836.930664 -20714.617335  16319.951600    110.390048
PG05   -609.363855  19050.084698  18270.461815   -136.833250
PG06 -25748.353131   5484.678951   3947.334260    572.668268
PG07 -21832.603392  -7489.078228  14025.048718    110.502847
PG08   4840.561837 -25062.412000  -6626.420731   -134.719706
PG09 -10618.282813 -12705.969168  20678.935818    -99.673111
PG10  18713.517839   4450.209947 -18277.025444    -47.197088
PG11 -16809.937092  12509.584623  16301.371934   -297.932829
PG12   7608.611233  23783.119355  -9434.805256   -406.785701
PG13 -13222.229620  22895.035902   -674.965010    553.640894
PG14 -19635.037953  -7537.865009 -16295.832040    138.148908
PG15   -964.508934  25439.465586  -7573.392333     62.773915
PG16   6486.101188 -15760.421121  19942.188213   -474.736916
PG17 -17099.727140   4744.124235 -19365.107347    721.908770
PG18  23359.225586   5495.321602  11567.685239   -364.133392
PG19 -18376.472116  11360.839856 -15437.017559    350.714075
PG20  -9359.271949  12412.646923  21577.025905    419.966792
PG21   2764.542744 -15403.380801 -20784.972348    151.500156
PG22  17612.278513 -15230.010598 -12178.392111    519.924148
PG23  19966.322048  15081.174009  -9149.087697     48.959068
PG24   2587.045198  15772.317846 -21569.835332   -273.898367
PG25  17392.234949  20126.343539   2055.850930    459.163599
PG26  14792.044581  -6645.348682  20958.477369    234.815105
PG27  12781.234555 -22555.585400   4402.033846    -12.713984
PG28  25966.962049  -5298.907626   1730.182930     80.044983
PG29   8500.580801  14113.083247  20759.524121   -606.705311
PG30 -26210.078438   -830.830765   5157.582855   -500.496227
PG31  21514.289547 -10509.646548  11756.501767   -220.956248
PG32  17216.611338  -8392.482979 -18134.846881   -531.016337
PJ02 -21858.817985  20107.050546 -25301.924179     -1.927535
PJ03 -29857.265085  28572.666396  13215.978958     -0.483117
PJ04 -25443.103097  29351.888421  22304.499045     97.867851
PR01  10950.827392   3867.145977 -22710.997311     62.434759
PR02   8690.509605 -15306.479098 -18391.102280    -22.576929
PR03   1497.783487 -25207.619968  -3340.721904     82.361351
PR04  -6033.912905 -20982.036796  13207.825279    196.684623
PR05 -10460.909656  -5434.017453  22627.237706    116.539504
PR07  -1191.318243  25375.371143   2626.915188     61.295655
PR08   6252.213377  20885.026963 -13214.044601    -71.881204
PR09 -14305.879327   4004.374648 -20735.246480    133.921801
PR11  16903.658793  15447.670846 -11203.890353   -117.878736
PR12  22744.354796   8500.990961   7866.578791     29.627366
PR13  15718.025628  -2309.579986  19948.751144    -37.612179
PR14  -2412.007252 -13365.462282  21614.819006     25.033591
PR15 -17596.717303 -15519.497549  10045.110301     87.437553
PR16 -22820.956485  -8606.824023  -7518.038806     17.199517
PR17   9952.204766 -15149.718931 -17966.507643      4.290763
PR18  -6251.753921  -8473.610110 -23224.040984     94.162693
PR19 -18499.756181    880.372136 -17539.496995   -241.633085
PR20 -22242.988782  12414.671529   1648.766218    -97.430252
PR21  -8945.604109  14769.534660  18755.116065    -26.492655
PR22   7069.698217   8540.378590  22994.345833    104.160162
PR24  21571.029897 -13452.016291  -2230.690478    -18.511432
PR25 -10512.733668  14893.566682  17830.948432     45.072642
EOF
